NORAD_CAT_ID,OBJECT_NAME,OBJECT_TYPE,EPOCH,MEAN_MOTION,ECCENTRICITY,INCLINATION,RA_OF_ASC_NODE,ARG_OF_PERICENTER,MEAN_ANOMALY,BSTAR,MEAN_MOTION_DOT,MEAN_MOTION_DDOT,TLE_LINE0,TLE_LINE1,TLE_LINE2,SEMIMAJOR_AXIS,PERIOD,APOGEE,PERIGEE,DECAYED
53438.0,STARLINK-4526,PAYLOAD,2022-08-26 06:00:00,15.73175753,0.0001240999999999,53.2209,168.5565,71.2544,217.1074,0.00040398,0.00056398,0.0,0 STARLINK-4526,1 53438U 22097BC  22238.25001157  .00056398  00000-0  40398-3 0  9999,2 53438  53.2209 168.5565 0001241  71.2544 217.1074 15.73175753  2955,6727.964,91.535,350.664,348.994,0.0
53438.0,STARLINK-4526,PAYLOAD,2022-08-26 14:00:01,15.7319122,0.0001250999999999,53.2202,166.9052,86.1859,291.1782,-0.00020677,-0.00029525,0.0,0 STARLINK-4526,1 53438U 22097BC  22238.58335648 -.00029525  00000-0 -20677-3 0  9992,2 53438  53.2202 166.9052 0001251  86.1859 291.1782 15.73191220  3008,6727.92,91.534,350.62699999999984,348.944,0.0
53438.0,STARLINK-4526,PAYLOAD,2022-08-26 22:00:00,15.73195794,0.0001368,53.2198,165.2565,87.5205,18.6779,3.1298000000000004e-05,3.774e-05,0.0,0 STARLINK-4526,1 53438U 22097BC  22238.91667824  .00003774  00000-0  31298-4 0  9991,2 53438  53.2198 165.2565 0001368  87.5205  18.6779 15.73195794  1301,6727.906999999997,91.533,350.6930000000001,348.852,0.0
53438.0,STARLINK-4526,PAYLOAD,2022-08-27 14:00:01,15.73235786,0.0001189999999999,53.2196,161.9574,87.8029,196.2639,-2.8669e-05,-4.647e-05,0.0,0 STARLINK-4526,1 53438U 22097BC  22239.58334491 -.00004647  00000-0 -28669-4 0  9996,2 53438  53.2196 161.9574 0001190  87.8029 196.2639 15.73235786  1306,6727.793000000002,91.531,350.459,348.858,0.0
53438.0,STARLINK-4526,PAYLOAD,2022-08-27 20:00:01,15.7324057,0.0001155999999999,53.2198,160.7202,90.3112,170.4808,-0.00026318,-0.00037454,0.0,0 STARLINK-4526,1 53438U 22097BC  22239.83334491 -.00037454  00000-0 -26318-3 0  9994,2 53438  53.2198 160.7202 0001156  90.3112 170.4808 15.73240570  3207,6727.78,91.531,350.422,348.867,0.0
53438.0,STARLINK-4526,PAYLOAD,2022-08-27 22:00:00,15.7323703,0.0001092,53.2198,160.3085,85.5905,287.445,-0.00035105,-0.00049674,0.0,0 STARLINK-4526,1 53438U 22097BC  22239.91667824 -.00049674  00000-0 -35105-3 0  9993,2 53438  53.2198 160.3085 0001092  85.5905 287.4450 15.73237030  1305,6727.79,91.531,350.389,348.92,0.0
53438.0,STARLINK-4526,PAYLOAD,2022-08-28 14:00:01,15.73180761,7.59e-05,53.2192,157.0091,89.3524,101.5789,0.00053272,0.00074749,0.0,0 STARLINK-4526,1 53438U 22097BC  22240.58334491  .00074749  00000-0  53272-3 0  9993,2 53438  53.2192 157.0091 0000759  89.3524 101.5789 15.73180761  3320,6727.95,91.534,350.326,349.30400000000014,0.0
53438.0,STARLINK-4526,PAYLOAD,2022-08-28 22:00:00,15.73266829,9.38e-05,53.2193,155.3608,86.822,193.0236,-0.00071594,-0.0010019,0.0,0 STARLINK-4526,1 53438U 22097BC  22240.91667824 -.00100190  00000-0 -71594-3 0  9998,2 53438  53.2193 155.3608 0000938  86.8220 193.0236 15.73266829  1309,6727.705,91.529,350.201,348.939,0.0
53438.0,STARLINK-4526,PAYLOAD,2022-08-29 14:00:01,15.73123925,0.0001223,53.2195,152.0611,91.0915,6.6224,0.00055999,0.0007844999999999,0.0,0 STARLINK-4526,1 53438U 22097BC  22241.58334491  .00078450  00000-0  55999-3 0  9995,2 53438  53.2195 152.0611 0001223  91.0915   6.6224 15.73123925  1301,6728.111999999999,91.538,350.8,349.154,0.0
53438.0,STARLINK-4526,PAYLOAD,2022-08-29 16:00:00,15.73131093,0.0001258,53.2194,151.6484,91.6167,118.3083,0.00060346,0.00084678,0.0,0 STARLINK-4526,1 53438U 22097BC  22241.66667824  .00084678  00000-0  60346-3 0  9994,2 53438  53.2194 151.6484 0001258  91.6167 118.3083 15.73131093  3497,6728.092,91.537,350.80300000000005,349.11,0.0
53438.0,STARLINK-4526,PAYLOAD,2022-08-29 22:00:00,15.73189832,0.0001323,53.2196,150.4127,86.6285,99.9484,8.5071e-05,0.0001133,0.0,0 STARLINK-4526,1 53438U 22097BC  22241.91667824  .00011330  00000-0  85071-4 0  9990,2 53438  53.2196 150.4127 0001323  86.6285  99.9484 15.73189832  1309,6727.924,91.534,350.67900000000014,348.899,0.0
53438.0,STARLINK-4526,PAYLOAD,2022-08-30 06:00:00,15.73192313,0.000126,53.219,148.7644,78.3037,197.1917,0.00047263,0.00066213,0.0,0 STARLINK-4526,1 53438U 22097BC  22242.25001157  .00066213  00000-0  47263-3 0  9999,2 53438  53.2190 148.7644 0001260  78.3037 197.1917 15.73192313  3582,6727.917,91.534,350.63,348.934,0.0
53438.0,STARLINK-4526,PAYLOAD,2022-08-30 14:00:01,15.73209793,0.0001278,53.2189,147.113,91.6707,272.7688,0.00044345,0.00062102,0.0,0 STARLINK-4526,1 53438U 22097BC  22242.58334491  .00062102  00000-0  44345-3 0  9996,2 53438  53.2189 147.1130 0001278  91.6707 272.7688 15.73209793  1308,6727.8669999999975,91.533,350.592,348.872,0.0
53438.0,STARLINK-4526,PAYLOAD,2022-08-30 22:00:00,15.73254697,0.0001391,53.2189,145.4648,88.3109,5.1019,-0.00044471,-0.00062715,0.0,0 STARLINK-4526,1 53438U 22097BC  22242.91667824 -.00062715  00000-0 -44471-3 0  9994,2 53438  53.2189 145.4648 0001391  88.3109   5.1019 15.73254697  1307,6727.739000000001,91.53,350.54,348.668,0.0
53438.0,STARLINK-4526,PAYLOAD,2022-08-31 14:00:01,15.73199069,0.0001060999999999,53.219,142.1645,94.8638,176.4852,-0.00011099,-0.00016165,0.0,0 STARLINK-4526,1 53438U 22097BC  22243.58334491 -.00016165  00000-0 -11099-3 0  9997,2 53438  53.2190 142.1645 0001061  94.8638 176.4852 15.73199069  1301,6727.898,91.533,350.477,349.0490000000001,0.0
53438.0,STARLINK-4526,PAYLOAD,2022-08-31 22:00:00,15.73167258,9.56e-05,53.2192,140.5163,86.338,273.9288,-2.5599000000000003e-06,-9.78e-06,0.0,0 STARLINK-4526,1 53438U 22097BC  22243.91667824 -.00000978  00000-0 -25599-5 0  9990,2 53438  53.2192 140.5163 0000956  86.3380 273.9288 15.73167258  1314,6727.989000000001,91.535,350.497,349.21,0.0
53438.0,STARLINK-4526,PAYLOAD,2022-09-01 14:00:01,15.73206315,9.72e-05,53.2186,137.2162,95.6084,82.5356,-9.9856e-05,-0.00014612,0.0,0 STARLINK-4526,1 53438U 22097BC  22244.58335648 -.00014612  00000-0 -99856-4 0  9996,2 53438  53.2186 137.2162 0000972  95.6084  82.5356 15.73206315  3951,6727.877,91.533,350.396,349.088,0.0
53438.0,STARLINK-4526,PAYLOAD,2022-09-01 22:00:00,15.73192827,0.0001112,53.2186,135.5685,88.1007,178.9082,0.00013465,0.00018313,0.0,0 STARLINK-4526,1 53438U 22097BC  22244.91667824  .00018313  00000-0  13465-3 0  9998,2 53438  53.2186 135.5685 0001112  88.1007 178.9082 15.73192827  1306,6727.916,91.534,350.529,349.032,0.0
53438.0,STARLINK-4526,PAYLOAD,2022-09-02 14:00:01,15.73208913,0.0001136,53.2189,132.2679,93.8943,350.9835,0.00037281,0.00052046,0.0,0 STARLINK-4526,1 53438U 22097BC  22245.58334491  .00052046  00000-0  37281-3 0  9996,2 53438  53.2189 132.2679 0001136  93.8943 350.9835 15.73208913  1306,6727.87,91.533,350.499,348.97,0.0
53438.0,STARLINK-4526,PAYLOAD,2022-09-02 22:00:01,15.73233464,0.0001266,53.219,130.6199,84.0323,89.8812,-0.00029558,-0.00041955,0.0,0 STARLINK-4526,1 53438U 22097BC  22245.91668981 -.00041955  00000-0 -29558-3 0  9994,2 53438  53.2190 130.6199 0001266  84.0323  89.8812 15.73233464  1307,6727.8,91.531,350.517,348.81300000000016,0.0
53438.0,STARLINK-4526,PAYLOAD,2022-09-03 00:00:00,15.73199114,0.0001330999999999,53.2191,130.208,82.2104,203.8862,0.000166,0.00022739,0.0,0 STARLINK-4526,1 53438U 22097BC  22246.00001157  .00022739  00000-0  16600-3 0  9992,2 53438  53.2191 130.2080 0001331  82.2104 203.8862 15.73199114  4177,6727.898,91.533,350.658,348.867,0.0
53438.0,STARLINK-4526,PAYLOAD,2022-09-03 14:00:01,15.73160306,0.0001016,53.2189,127.3195,95.7453,256.0056,0.00067416,0.00094906,0.0,0 STARLINK-4526,1 53438U 22097BC  22246.58334491  .00094906  00000-0  67416-3 0  9991,2 53438  53.2189 127.3195 0001016  95.7453 256.0056 15.73160306  1302,6728.0080000000025,91.535,350.557,349.19,0.0
53438.0,STARLINK-4526,PAYLOAD,2022-09-03 22:00:00,15.73256178,0.0001105999999999,53.2189,125.6721,84.492,356.1745,-0.00068985,-0.00096561,0.0,0 STARLINK-4526,1 53438U 22097BC  22246.91667824 -.00096561  00000-0 -68985-3 0  9990,2 53438  53.2189 125.6721 0001106  84.4920 356.1745 15.73256178  1302,6727.735,91.53,350.344,348.856,0.0
53438.0,STARLINK-4526,PAYLOAD,2022-09-04 06:00:00,15.73215128,0.0001102,53.2189,124.0226,84.2737,85.3469,2.5192e-05,2.919e-05,0.0,0 STARLINK-4526,1 53438U 22097BC  22247.25001157  .00002919  00000-0  25192-4 0  9995,2 53438  53.2189 124.0226 0001102  84.2737  85.3469 15.73215128  4379,6727.852,91.532,350.458,348.976,0.0
53438.0,STARLINK-4526,PAYLOAD,2022-09-04 14:00:01,15.73190259,0.0001019,53.2193,122.3712,95.9581,162.6862,0.00017062,0.00023382,0.0,0 STARLINK-4526,1 53438U 22097BC  22247.58335648  .00023382  00000-0  17062-3 0  9999,2 53438  53.2193 122.3712 0001019  95.9581 162.6862 15.73190259  1301,6727.9230000000025,91.534,350.474,349.102,0.0
53438.0,STARLINK-4526,PAYLOAD,2022-09-04 20:00:01,15.73240302,0.0001054999999999,53.2197,121.1358,88.5948,146.66899999999995,-0.00070888,-0.00099109,0.0,0 STARLINK-4526,1 53438U 22097BC  22247.83334491 -.00099109  00000-0 -70888-3 0  9999,2 53438  53.2197 121.1358 0001055  88.5948 146.6690 15.73240302  1309,6727.78,91.531,350.355,348.935,0.0
53438.0,STARLINK-4526,PAYLOAD,2022-09-05 14:00:01,15.73204706,0.0001157,53.2195,117.4233,96.344,69.1066,-2.2349e-05,-3.755e-05,0.0,0 STARLINK-4526,1 53438U 22097BC  22248.58334491 -.00003755  00000-0 -22349-4 0  9994,2 53438  53.2195 117.4233 0001157  96.3440  69.1066 15.73204706  4581,6727.882,91.533,350.525,348.968,0.0
53438.0,STARLINK-4526,PAYLOAD,2022-09-05 20:00:01,15.73202782,0.0001002,53.2194,116.188,88.3917,53.745,-0.00065222,-0.00091176,0.0,0 STARLINK-4526,1 53438U 22097BC  22248.83334491 -.00091176  00000-0 -65222-3 0  9992,2 53438  53.2194 116.1880 0001002  88.3917  53.7450 15.73202782  1308,6727.887,91.533,350.426,349.07800000000015,0.0
53438.0,STARLINK-4526,PAYLOAD,2022-09-06 06:00:00,15.73170724,8.39e-05,53.2191,114.1265,82.7204,260.5167,-0.00050316,-0.00070553,0.0,0 STARLINK-4526,1 53438U 22097BC  22249.25001157 -.00070553  00000-0 -50316-3 0  9993,2 53438  53.2191 114.1265 0000839  82.7204 260.5167 15.73170724  4681,6727.979,91.535,350.408,349.279,0.0
